[{"OBJECT_NAME":"OBJECT B","OBJECT_ID":"2024-203B","EPOCH":"2026-03-09T23:52:52.928256","MEAN_MOTION":15.27506959,"ECCENTRICITY":0.00103904,"INCLINATION":97.4268,"RA_OF_ASC_NODE":139.5887,"ARG_OF_PERICENTER":321.1475,"MEAN_ANOMALY":38.9016,"EPHEMERIS_TYPE":0,"CLASSIFICATION_TYPE":"U","NORAD_CAT_ID":61870,"ELEMENT_SET_NO":999,"REV_AT_EPOCH":7381,"BSTAR":0.00063263842,"MEAN_MOTION_DOT":0.00016997,"MEAN_MOTION_DDOT":0},{"OBJECT_NAME":"STARLINK-33919","OBJECT_ID":"2025-087C","EPOCH":"2026-03-09T16:24:46.831968","MEAN_MOTION":15.30199068,"ECCENTRICITY":9.515e-5,"INCLINATION":53.1603,"RA_OF_ASC_NODE":219.943,"ARG_OF_PERICENTER":87.8925,"MEAN_ANOMALY":272.2185,"EPHEMERIS_TYPE":0,"CLASSIFICATION_TYPE":"U","NORAD_CAT_ID":63699,"ELEMENT_SET_NO":999,"REV_AT_EPOCH":4919,"BSTAR":0.00057663715,"MEAN_MOTION_DOT":0.00016757,"MEAN_MOTION_DDOT":0}]
